TDRS 3                  
1 19548U 88091B   23129.08415801 -.00000297  00000+0  00000+0 0  9994
2 19548  13.4751 348.8377 0036566 340.8955 237.9827  1.00263102114009
FLTSATCOM 8 (USA 46)    
1 20253U 89077A   23127.69910543 -.00000072  00000+0  00000+0 0  9993
2 20253  12.7634 358.1090 0005732 104.5422  86.1174  1.00272655249211
SKYNET 4C               
1 20776U 90079A   23129.24424257  .00000128  00000+0  00000+0 0  9993
2 20776  13.7076 357.6554 0002952  58.8291 291.6060  1.00271260119503
TDRS 5                  
1 21639U 91054B   23129.22370453  .00000086  00000+0  00000+0 0  9995
2 21639  14.2107   2.1352 0028135 359.5257 138.1616  1.00265274116333
TDRS 6                  
1 22314U 93003B   23129.17519466 -.00000293  00000+0  00000+0 0  9996
2 22314  14.1497   5.4107 0010782 124.8515 113.6505  1.00269211111029
UFO 2 (USA 95)          
1 22787U 93056A   23128.87410361  .00000130  00000+0  00000+0 0  9997
2 22787  11.5478   9.4441 0003959  34.1721 166.1929  1.00273200107164
USA 99 (MILSTAR-1 1)    
1 22988U 94009A   23129.31430807 -.00000194  00000+0  00000+0 0  9997
2 22988  15.8723  39.6893 0002838 357.1475 213.2041  1.00271070 21585
USA 107 (DSP 17)        
1 23435U 94084A   23129.02688362 -.00000243  00000+0  00000+0 0  9992
2 23435  14.5699   3.2138 0000387 302.6256 245.8093  0.99082137 21566
UFO 4 (USA 108)         
1 23467U 95003A   23129.58102780 -.00000019  00000+0  00000+0 0  9996
2 23467   9.7976  16.7501 0004418  64.6881 167.1701  1.00273612103573
AMSC 1                  
1 23553U 95019A   23129.23313120 -.00000090  00000+0  00000+0 0  9992
2 23553  12.2509  24.0657 0005684  15.8626 163.2923  1.00271855102798
TDRS 7                  
1 23613U 95035B   23128.79828782 -.00000197  00000+0  00000+0 0  9990
2 23613  13.8507 356.1390 0029292  58.9069 183.4197  1.00268590101869
USA 115 (MILSTAR-1 2)   
1 23712U 95060A   23128.29563178 -.00000014  00000+0  00000+0 0  9996
2 23712  13.6505  11.9286 0001523  24.7691 175.5944  1.00270627 21490
INMARSAT 3-F1           
1 23839U 96020A   23129.19979872 -.00000211  00000+0  00000+0 0  9994
2 23839   8.2174  55.9224 0006715  17.9960 201.7877  1.00001255 98909
INMARSAT 3-F2           
1 24307U 96053A   23129.50504841  .00000125  00000+0  00000+0 0  9999
2 24307   7.2606  64.4227 0009565   2.0328 198.9796  0.99988122 97579
AMC-1 (GE-1)            
1 24315U 96054A   23128.55657087  .00000073  00000+0  00000+0 0  9996
2 24315   6.3921  70.2967 0003875 346.2250 239.0669  1.00271905 97639
INMARSAT 3-F3           
1 24674U 96070A   23128.81785588 -.00000288  00000+0  00000+0 0  9998
2 24674   7.8396  59.4130 0005861   2.3295 204.3676  0.99986387 96553
GALAXY 25 (G-25)        
1 24812U 97026A   23129.14285503 -.00000124  00000+0  00000+0 0  9992
2 24812   4.5092  80.3529 0012556 344.4491 320.8481  0.99035533 94976
INTELSAT 5 (IS-5)       
1 24916U 97046A   23129.57350441 -.00000059  00000+0  00000+0 0  9997
2 24916   7.9282  58.6959 0002110 344.5667 196.4584  1.00270972 94247
AMC-3 (GE-3)            
1 24936U 97050A   23129.20465917 -.00000254  00000+0  00000+0 0  9996
2 24936   5.3458  76.3252 0003281 334.9365 177.1640  1.00269997 41052
USA 134                 
1 25019U 97065A   23128.31855236 -.00000054  00000+0  00000+0 0  9991
2 25019  11.4315  29.4637 0005086  13.6033 185.2680  1.00270047 21565
ASTRA 1G                
1 25071U 97076A   23128.99841147  .00000121  00000+0  00000+0 0  9995
2 25071   6.9937  65.6921 0004809 341.2219 198.4814  1.00269048 93123
INMARSAT 3-F5           
1 25153U 98006B   23129.22341220 -.00000284  00000+0  00000+0 0  9995
2 25153   7.1306  63.4069 0005185 348.9811 200.7661  1.00267388 92510
UFO 8 (USA 138)         
1 25258U 98016A   23128.42038705 -.00000053  00000+0  00000+0 0  9998
2 25258   9.7859  28.5540 0001340  53.1092 180.9069  1.00390395 92468
ASTRA 2A                
1 25462U 98050A   23129.07271640  .00000076  00000+0  00000+0 0  9996
2 25462   4.2222  82.0086 0003509 322.7467 265.2496  1.00272539 34959
SKYNET 4E               
1 25639U 99009B   23126.92878230 -.00000024  00000+0  00000+0 0  9990
2 25639  11.4136  15.2170 0002771  38.3625 144.1282  1.00275393 39984
ABS-6                   
1 25924U 99053A   23129.56511694 -.00000114  00000+0  00000+0 0  9997
2 25924   0.0433 101.7482 0002828 313.1663 174.6589  1.00271838 86475
UFO 10 (USA 146)        
1 25967U 99063A   23129.19979872 -.00000182  00000+0  00000+0 0  9995
2 25967   9.1185  32.2932 0003577  38.7752 204.6823  1.00275932 85962
GALAXY 11 (G-11)        
1 26038U 99071A   23129.43938100 -.00000156  00000+0  00000+0 0  9991
2 26038   3.8359  83.9939 0001608  27.2289 180.8435  1.00271042 85701
USA 148                 
1 26052U 00001A   23129.59118615  .00000043  00000+0  00000+0 0  9994
2 26052  10.0586  40.4037 0000762   1.5952 218.4386  1.00273782 21580
ASIASTAR                
1 26107U 00016A   23128.78174304 -.00000325  00000+0  00000+0 0  9992
2 26107   6.4455  69.2483 0004796 344.4339 199.0690  1.00268014 84536
USA 149 (DSP 20)        
1 26356U 00024A   23129.47761083  .00000101  00000+0  00000+0 0  9991
2 26356  12.3206  19.4099 0000981 187.2174  27.5748  1.00287705 21532
TDRS 8                  
1 26388U 00034A   23128.73868682 -.00000228  00000+0  00000+0 0  9999
2 26388  10.8845  40.2784 0023480 344.2096 196.9977  1.00268639 83795
INTELSAT 9 (IS-9)       
1 26451U 00043A   23129.22341220 -.00000282  00000+0  00000+0 0  9999
2 26451   7.9123  58.8835 0002886 354.4776 203.8517  1.00270566 32760
NSS-11 (AAP-1)          
1 26554U 00059A   23129.58688715  .00000030  00000+0  00000+0 0  9992
2 26554   0.0323  51.7147 0002164  19.7457 182.9464  1.00269827 29913
USA 153                 
1 26575U 00065A   23129.13500362 -.00000319  00000+0  00000+0 0  9995
2 26575   9.6553  43.7223 0001046 332.6925  33.3609  1.00273439 21553
AMC-6 (GE-6)            
1 26580U 00067A   23129.51038770  .00000110  00000+0  00000+0 0  9992
2 26580   0.0651  87.7262 0002694 328.6558 215.4196  1.00269501 82524
INTELSAT 1R (IS-1R)     
1 26608U 00072A   23129.12549828 -.00000132  00000+0  00000+0 0  9992
2 26608   5.2761  76.2782 0001373  30.2450 322.4662  1.00271947 29934
ANIK F1                 
1 26624U 00076A   23129.01389576 -.00000054  00000+0  00000+0 0  9997
2 26624   2.2632  88.6233 0009870 344.5038  49.3126  1.00272296 31769
USA 157 (MILSTAR-2 2)   
1 26715U 01009A   23129.08179076  .00000018  00000+0  00000+0 0  9993
2 26715  10.3283  25.8169 0002021  20.4411  85.5185  1.00271490 21579
EUTELSAT 133 WEST A     
1 26719U 01011A   23129.08243936  .00000089  00000+0  00000+0 0  9995
2 26719   4.5181  79.5070 0002511 330.5469 214.1589  1.00466784 81165
INTELSAT 10 (IS-10)     
1 26766U 01019A   23129.58846184  .00000039  00000+0  00000+0 0  9999
2 26766   6.3554  70.4826 0004366 342.8823 203.4234  1.00272985 34243
INTELSAT 901 (IS-901)   
1 26824U 01024A   23129.05952356 -.00000195  00000+0  00000+0 0  9995
2 26824   0.0312  88.1414 0001227 350.7209 141.6773  1.00271018 11601
ASTRA 2C                
1 26853U 01025A   23129.20465917 -.00000252  00000+0  00000+0 0  9991
2 26853   5.3685  76.1421 0003203 330.2240 181.6222  1.00270308 33667
USA 159 (DSP 21)        
1 26880U 01033A   23129.11282176 -.00000293  00000+0  00000+0 0  9999
2 26880  11.7213  23.8032 0000709 352.5254 201.9475  1.00271677 21586
INTELSAT 902 (IS-902)   
1 26900U 01039A   23129.22341220 -.00000275  00000+0  00000+0 0  9996
2 26900   3.2297  85.3247 0003512 345.5177 186.2732  1.00270718 79319
USA 164 (MILSTAR-2 3)   
1 27168U 02001A   23127.89077118  .00000074  00000+0  00000+0 0  9992
2 27168   9.8577  27.6780 0101179 352.0584 185.3041  1.00273471 20254
INTELSAT 904 (IS-904)   
1 27380U 02007A   23129.21229785 -.00000207  00000+0  00000+0 0  9990
2 27380   4.0559  82.3867 0003307 335.0588 216.2629  1.00270606 40389
NSS-7                   
1 27414U 02019A   23129.15604904 -.00000152  00000+0  00000+0 0  9993
2 27414   6.6644  68.5364 0002495 338.9616 215.3679  1.00271206 77189
DIRECTV 5 (TEMPO 1)     
1 27426U 02023A   23128.58120859 -.00000046  00000+0  00000+0 0  9991
2 27426   1.9561  89.2902 0003590 325.7069 270.2855  1.00271795 76738
INTELSAT 905 (IS-905)   
1 27438U 02027A   23129.57905791 -.00000179  00000+0  00000+0 0  9991
2 27438   3.8803  83.0832 0002899 323.3362   4.6945  1.00271275 39984
GALAXY 3C (G-3C)        
1 27445U 02030A   23129.43938100 -.00000146  00000+0  00000+0 0  9992
2 27445   0.7918  91.0777 0000470  32.1244 167.1106  1.00270780 35114
INTELSAT 906 (IS-906)   
1 27513U 02041A   23129.03730049  .00000021  00000+0  00000+0 0  9999
2 27513   2.9001  86.6808 0003781 341.1741 236.3280  1.00273208 75647
TDRS 10                 
1 27566U 02055A   23129.60121615  .00000091  00000+0  00000+0 0  9995
2 27566   8.8056  48.0596 0009111 340.2586 244.1586  1.00267489 74858
NSS-6                   
1 27603U 02057A   23129.60519394  .00000113  00000+0  00000+0 0  9999
2 27603   2.4392  87.8185 0003561 322.4731 225.2299  1.00269176 74660
NIMIQ 2                 
1 27632U 02062A   23128.58373993 -.00000058  00000+0  00000+0 0  9995
2 27632   6.7694  68.0156 0003858 342.5062 276.5856  1.00271534 32799
USA 167                 
1 27691U 03008A   23128.55698841  .00000060  00000+0  00000+0 0  9992
2 27691   8.6865  52.4583 0001390   2.6760 241.5225  1.00272885 20232
USA 169 (MILSTAR-2 4)   
1 27711U 03012A   23129.55673407 -.00000227  00000+0  00000+0 0  9998
2 27711  10.6160  38.1345 0100733 352.9972 188.5373  1.00270465 21574
GALAXY 12 (G-12)        
1 27715U 03013B   23129.52388188  .00000063  00000+0  00000+0 0  9996
2 27715   4.0898  82.0725 0002054 328.3529 236.2469  1.00271931 40718
ASIASAT 4               
1 27718U 03014A   23129.55181394 -.00000216  00000+0  00000+0 0  9994
2 27718   1.7910  89.9292 0003080 313.6868 169.6979  1.00270775 33923
HELLAS-SAT 2            
1 27811U 03020A   23129.14493625 -.00000075  00000+0  00000+0 0  9996
2 27811   4.5014  81.0320 0006091 326.8605 221.0072  1.00271254 31465
